[{"OBJECT_NAME":"CORVUS BC2","OBJECT_ID":"2017-042X","EPOCH":"2026-03-09T22:14:39.055488","MEAN_MOTION":15.05610206,"ECCENTRICITY":0.00145863,"INCLINATION":97.3955,"RA_OF_ASC_NODE":234.2405,"ARG_OF_PERICENTER":92.385,"MEAN_ANOMALY":267.9047,"EPHEMERIS_TYPE":0,"CLASSIFICATION_TYPE":"U","NORAD_CAT_ID":42846,"ELEMENT_SET_NO":999,"REV_AT_EPOCH":47212,"BSTAR":0.00034626467,"MEAN_MOTION_DOT":4.947e-5,"MEAN_MOTION_DDOT":0},{"OBJECT_NAME":"STARLINK-3906","OBJECT_ID":"2022-051BB","EPOCH":"2026-03-09T12:38:53.218176","MEAN_MOTION":15.08836817,"ECCENTRICITY":0.00014948,"INCLINATION":53.2175,"RA_OF_ASC_NODE":119.8095,"ARG_OF_PERICENTER":72.8815,"MEAN_ANOMALY":287.2341,"EPHEMERIS_TYPE":0,"CLASSIFICATION_TYPE":"U","NORAD_CAT_ID":52585,"ELEMENT_SET_NO":999,"REV_AT_EPOCH":21156,"BSTAR":3.6390611e-5,"MEAN_MOTION_DOT":2.91e-6,"MEAN_MOTION_DDOT":0}]
